#dP2021  3 17 12  0  0.00000000      96 __u+U ITR00 EXT  IAC
## 2149 302400.00000000   900.00000000 59290 0.5000000000000
+  116   C06C07C08C09C10C11C12C13C14C16C19C20C21C22C23C24C25
+        C26C27C28C29C30C32C33C34C35C36C37C38C39C40C41C42C43
+        C44C45C46E01E02E03E04E05E07E08E09E11E12E13E14E15E18
+        E19E21E24E25E26E27E30E31E33G01G02G03G04G05G06G07G08
+        G09G10G11G12G13G14G15G16G17G18G19G20G21G22G23G24G25
+        G26G27G28G29G30G31G32J01J02J03R01R02R03R04R05R07R08
+        R09R11R12R13R14R15R16R17R18R19R20R21R22R24  0  0  0
++        13  7  9  9  7  9  7 10  9 15  9  7  9  9  9  8  9
++         8 10  8  7  9  8  8  9  9  9  9 10 11  8  9  8  8
++         8 11 10  9  8  8  7  8  9  8  7  8  8  9  9  7  8
++         8  9  8  7  8  8  8  8  8  8  8  8  8  9  7  8  7
++         7  8  7  9  8  8  7  7  7  7  8  8  8  8  8  7  7
++         7  8  7  8  8  8  8  9 10 11  9  9  8  8  9  8  7
++         9 10  9  9  9  8  8  7  8  9  9  9  8  8  0  0  0
%c M  cc GPS ccc cccc cccc cccc cccc ccccc ccccc ccccc ccccc
%c cc cc ccc ccc cccc cccc cccc cccc ccccc ccccc ccccc ccccc
%f  0.0000000  0.000000000  0.00000000000  0.000000000000000
%f  0.0000000  0.000000000  0.00000000000  0.000000000000000
%i    0    0    0    0      0      0      0      0         0
%i    0    0    0    0      0      0      0      0         0
/* IAC                                ULTRA-RAPID PREDICTION
/* S/V CLOCKS ARE ALIGNED TO GNSS TIME                      
/* G:C1WC2W R:C1PC2P E:C1XC5X C:C2IC6I J:C1CC2S             
/* PCV:IGS14_2134 OL/AL:FES2004  NONE     YN ORB:CoN CLK:CoN
*  2021 03 17 17 30  0.00000000
PC06 -15562.132581  38398.021903   9542.911745    186.328061
PC07 -11626.919832  24047.432375 -32318.424014    -26.851057
PC08 -25064.796007  23669.406821  24124.406257   -899.729527
PC09  -6968.578919  41413.971683  -5531.096582    661.841201
PC10   3341.213420  30868.823090 -28139.421676    -70.283525
PC11   9124.658916 -26361.839131  -1194.767893   -863.336322
PC12  16708.389263 -16219.499059  15424.053469    872.059734
PC13  -9977.036198  25557.546393  32045.339889    184.068323
PC14    716.448910 -19932.624743 -19510.284950    234.530209
PC16 -12238.914137  40122.733682   5367.141242   -738.968776
PC19   8103.049977  23248.715920  13151.489055    765.079156
PC20  -8136.782237  14390.103738  22498.661300   -931.673482
PC21  20269.062079   3528.514003 -18821.759649   -890.020899
PC22  20094.686798  18889.350310  -4153.268317   -920.795561
PC23 -19665.649436  -9199.660669  17527.902602   -878.269318
PC24  19844.347928 -13751.717571  14004.826458   -785.565612
PC25  -1015.503964 -16278.348795  22636.997288   -947.005028
PC26  27519.179908  -4447.825875  -1673.141390    934.096611
PC27 -17601.100468   6364.503133 -20722.496152    500.206803
PC28 -10758.774377 -13949.800121 -21638.965955    -97.303102
PC29  -1354.315775  26072.252390   9862.129758    366.282185
PC30 -13456.311281  23087.293349  -8091.549287    453.113851
PC32 -20329.907257  -3367.979723  18841.187422   -914.760724
PC33  -8203.730160 -23211.045309 -13146.770670   -946.450660
PC34  13193.667443 -23419.216106   7435.454000   -716.853166
PC35  11104.535605  13928.210076  21487.632446   -370.286823
PC36    260.289566  16337.496219 -22603.347715   -740.746840
PC37 -27595.620120   3229.482616   2501.648681   -877.993431
PC38 -21545.278829  26035.678195  25173.975104    136.425748
PC39  -9249.295338  40900.748246   5092.283410     29.473031
PC40    960.328489  27950.819918 -31501.365487    141.898559
PC41 -20104.657614 -18950.110413   3958.445834   -933.000585
PC42   8700.474353 -13894.266747 -22537.238805   -940.385138
PC43   1766.375426 -26193.141699  -9426.553886   -643.785157
PC44  17452.949757  -6640.314270  20719.568420     90.700648
PC45  19755.207003   9012.951090 -17543.273558    389.263813
PC46 -19027.400989  14067.181026 -14762.849662    358.617498
PE01  15356.261647 -11328.042792  22626.284223  -1067.541163
PE02 -15215.028129  11409.681872 -22682.831431    205.684057
PE03  -8814.673832  20848.704682  19068.539764   -409.938359
PE04  -4729.741501 -29042.748114  -3202.690925   -730.903698
PE05 -17377.402264    300.179198  23964.482974   -296.277562
PE07  15715.761092  20219.192485 -14830.516556   -513.962876
PE08   5099.871388  29004.122204   2934.348680   6031.740949
PE09 -15796.932861 -20036.288750  15023.144461   5731.639180
PE11 -13869.900109  -8950.252989 -24573.927154   6196.628179
PE12   4594.118396 -22010.824427 -19232.479861   5305.567774
PE13  13487.175946   9247.739679  24680.912109    413.684603
PE14 -19133.839500   9393.513499 -22925.926504  -1365.086224
PE15  -4544.606191  21994.901032  19297.327775    824.177028
PE18  10844.111277 -20104.999671  12063.848810  -1492.794358
PE19  10071.154490 -18929.867822 -20397.410998    229.211673
PE21  27887.627984   1275.392046   9845.759362   -654.141962
PE24 -24165.103422 -14054.618844   9673.374191   -797.828358
PE25 -27930.521298  -1398.841898  -9687.735789   -528.691420
PE26  23805.939887  -9375.103570  14889.963095   2031.022377
PE27  24678.706556  13613.482320  -9069.396477      8.426853
PE30   5959.770945  17901.080241 -22825.800455   3099.334362
PE31  -6972.838347 -17873.106763  22541.169015   -479.260852
PE33  19882.005730 -21769.166587  -2548.992279   -466.623082
PG01   7551.862484 -18397.186021 -17675.146826    739.006706
PG02 -22161.430947  14420.792904  -2039.609126   -587.037084
PG03  -3429.414322 -17359.992828 -19918.828963   -110.735274
PG04   1811.167684 -26341.571692  -2599.760719   -186.739183
PG05 -14964.701553   8526.121364  20118.884185    -36.489277
PG06 -22508.850239   3248.328013 -13706.138024      1.364460
PG07  -7801.100304 -13469.077935  21852.039227     92.991764
PG08   5987.415473 -23518.966470  10421.870586    -14.093127
PG09  -6970.480221 -24287.524279   8083.327716   -331.837942
PG10  23991.060054  11636.434611  -1385.114821    -82.977398
PG11   7329.948865 -24620.298628  -7914.238343      3.780730
PG12  -1443.539444  16179.838246 -21296.999859    -15.262131
PG13 -12884.289581  16277.464716  16360.615150    108.949012
PG14 -23041.578937 -13220.017847   -547.914737     99.813278
PG15  -3542.746570  24233.039903   9461.844493   -162.490617
PG16  17651.787118  -4123.542625  19330.378562   -295.474716
PG17 -12993.679629 -11064.801564 -19922.814243    411.252345
PG18  10576.298476  11106.870690  21684.260574    350.691027
PG19 -14788.415109  -1927.471817 -22263.021473    -25.106817
PG20  17690.476599  15849.680375  12103.036256    524.105383
PG21  14364.840394 -19264.253192 -10066.002734    103.879660
PG22   6120.443512 -14461.753447 -21220.568938   -658.421986
PG23  18828.661441  16441.853363   9018.197180    117.259913
PG24 -11473.100302  20077.360147 -12950.571267      0.935582
PG25  13024.236415  18403.334664 -14518.657635    100.693729
PG26  23703.430260   1649.994675  12084.995932     59.394668
PG27  12318.863914 -13580.504907  18909.976090    -95.774570
PG28 -22850.580618 -12942.892878  -2639.927116    600.741568
PG29   4928.123955  24518.725839   8840.449542   -313.558514
PG30 -18876.581043  -4496.248812  18282.709602   -399.799659
PG31  23868.735096  -4877.422084 -11204.470748   -106.160120
PG32  14642.105204   8787.508715 -20282.782965     21.322067
PJ01 -25005.295017  23313.420644  29640.953694   -355.895473
PJ02 -31340.306918  14785.072985 -19508.275643      3.542119
PJ03 -23672.094168  31761.481495  -9799.901771     -1.883755
PR01  -4990.127496 -20956.658783 -13667.132369     76.529429
PR02 -14897.440608 -19470.427166   6980.473169    471.133151
PR03 -14369.489425  -5493.613581  20376.201835     32.561502
PR04  -5576.213953  11224.635229  22247.252789     78.313901
PR05   6186.437115  21831.455413  11689.106860     68.320831
PR07  14181.073738   5008.954434 -20575.543674    -42.555887
PR08   5610.360344 -11307.292482 -22105.047013    -57.983141
PR09  18575.614627   7508.751988 -15732.405502    -16.652358
PR11  17896.178186  -8013.196210  16316.172618      2.190311
PR12   -540.585271 -10975.516757  23039.392904    213.342618
PR13 -18203.769250  -7463.558919  16211.601946    -52.136462
PR14 -25502.235372    447.617918   -621.698741     62.116204
PR15 -17695.179555   7951.768976 -16545.794443    104.867170
PR16   2020.096660  11091.215279 -22914.203497    -12.634150
PR17 -14252.090739   6264.504838 -20185.406511    408.782094
PR18 -15062.168800  19398.973696  -6986.923388     70.111224
PR19  -8903.476676  22058.545983   9217.827810   -136.083891
PR20   4627.956534  11346.179688  22390.425119    -45.445152
PR21  14565.247711  -7402.234438  19598.247828   -195.081295
PR22  14869.615787 -19788.248395   5927.597121   -103.091318
PR24  -5667.626020 -10859.768656 -22355.973891     35.356759
EOF
